ONEWEB-0694             
1 56722U 23068N   23308.81323629  .00003943  00000+0  53688-3 0  9992
2 56722  86.7235  71.5170 0014457   3.3039 356.8274 14.78431763 25012
ONEWEB-0696             
1 56723U 23068P   23309.17133795  .00000247  00000+0  50801-3 0  9994
2 56723  87.9506  89.3393 0001401  62.2688 297.8592 13.28984144 24498
ONEWEB-0703             
1 56724U 23068Q   23308.90134345 -.00000011  00000+0 -64372-4 0  9997
2 56724  87.8992  89.4214 0001965  53.3329 306.7981 13.15546997 23653
ONEWEB-0721             
1 56725U 23068R   23308.81178078 -.00004147  00000+0 -50890-3 0  9992
2 56725  86.6764  70.1923 0010433   2.7468 357.3811 14.83441976 25770
